{
  "type": "FeatureCollection",
  "name": "airport_mrt_exits",
  "crs": {
    "type": "name",
    "properties": {
      "name": "urn:ogc:def:crs:OGC:1.3:CRS84"
    }
  },
  "features": [
    {
      "type": "Feature",
      "geometry": {
        "type": "Point",
        "coordinates": [
          121.515,
          25.048
        ]
      },
      "properties": {
        "StationID": "A1",
        "StationName_zh": "台北車站",
        "StationName_en": "Taipei Main Station",
        "ExitID": "A1-E1",
        "ExitName_zh": "出口1",
        "ExitName_en": "Exit1",
        "LocationDescription": "市民大道台北地下街出口Y12西面",
        "Stair": true,
        "Escalator": 1,
        "Elevator": true,
        "SrcUpdateTime": "2018-12-04T14:03:25+08:00",
        "UpdateTime": "2018-12-04T16:43:42+08:00",
        "VersionID": "1",
        "source": "Taoyuan Metro Open Data",
        "data_status": [
          "ok"
        ]
      }
    },
    {
      "type": "Feature",
      "geometry": {
        "type": "Point",
        "coordinates": [
          121.514,
          25.048
        ]
      },
      "properties": {
        "StationID": "A1",
        "StationName_zh": "台北車站",
        "StationName_en": "Taipei Main Station",
        "ExitID": "A1-E2",
        "ExitName_zh": "出口2",
        "ExitName_en": "Exit2",
        "LocationDescription": "市民大道台北地下街出口Y18東面",
        "Stair": true,
        "Escalator": 1,
        "Elevator": true,
        "SrcUpdateTime": "2018-12-04T14:03:25+08:00",
        "UpdateTime": "2018-12-04T16:43:42+08:00",
        "VersionID": "1",
        "source": "Taoyuan Metro Open Data",
        "data_status": [
          "ok"
        ]
      }
    },
    {
      "type": "Feature",
      "geometry": {
        "type": "Point",
        "coordinates": [
          121.513,
          25.048
        ]
      },
      "properties": {
        "StationID": "A1",
        "StationName_zh": "台北車站",
        "StationName_en": "Taipei Main Station",
        "ExitID": "A1-E3",
        "ExitName_zh": "出口3",
        "ExitName_en": "Exit3",
        "LocationDescription": "市民大道與重慶北路一段交叉口東南面",
        "Stair": true,
        "Escalator": 1,
        "Elevator": true,
        "SrcUpdateTime": "2018-12-04T14:03:25+08:00",
        "UpdateTime": "2018-12-04T16:43:42+08:00",
        "VersionID": "1",
        "source": "Taoyuan Metro Open Data",
        "data_status": [
          "ok"
        ]
      }
    },
    {
      "type": "Feature",
      "geometry": {
        "type": "Point",
        "coordinates": [
          121.513,
          25.048
        ]
      },
      "properties": {
        "StationID": "A1",
        "StationName_zh": "台北車站",
        "StationName_en": "Taipei Main Station",
        "ExitID": "A1-E4",
        "ExitName_zh": "出口4",
        "ExitName_en": "Exit4",
        "LocationDescription": "重慶北路一段與北平西路交叉口東北面",
        "Stair": true,
        "Escalator": 1,
        "Elevator": true,
        "SrcUpdateTime": "2018-12-04T14:03:25+08:00",
        "UpdateTime": "2018-12-04T16:43:42+08:00",
        "VersionID": "1",
        "source": "Taoyuan Metro Open Data",
        "data_status": [
          "ok"
        ]
      }
    },
    {
      "type": "Feature",
      "geometry": {
        "type": "Point",
        "coordinates": [
          121.512,
          25.048
        ]
      },
      "properties": {
        "StationID": "A1",
        "StationName_zh": "台北車站",
        "StationName_en": "Taipei Main Station",
        "ExitID": "A1-E5",
        "ExitName_zh": "出口5",
        "ExitName_en": "Exit5",
        "LocationDescription": "市民大道與重慶北路一段交叉口西南面",
        "Stair": true,
        "Escalator": 1,
        "Elevator": true,
        "SrcUpdateTime": "2018-12-04T14:03:25+08:00",
        "UpdateTime": "2018-12-04T16:43:42+08:00",
        "VersionID": "1",
        "source": "Taoyuan Metro Open Data",
        "data_status": [
          "ok"
        ]
      }
    },
    {
      "type": "Feature",
      "geometry": {
        "type": "Point",
        "coordinates": [
          121.512,
          25.049
        ]
      },
      "properties": {
        "StationID": "A1",
        "StationName_zh": "台北車站",
        "StationName_en": "Taipei Main Station",
        "ExitID": "A1-E6",
        "ExitName_zh": "出口6",
        "ExitName_en": "Exit6",
        "LocationDescription": "市民大道近延平北路交叉東南面",
        "Stair": true,
        "Escalator": 1,
        "Elevator": true,
        "SrcUpdateTime": "2018-12-04T14:03:25+08:00",
        "UpdateTime": "2018-12-04T16:43:42+08:00",
        "VersionID": "1",
        "source": "Taoyuan Metro Open Data",
        "data_status": [
          "ok"
        ]
      }
    },
    {
      "type": "Feature",
      "geometry": {
        "type": "Point",
        "coordinates": [
          121.511,
          25.048
        ]
      },
      "properties": {
        "StationID": "A1",
        "StationName_zh": "台北車站",
        "StationName_en": "Taipei Main Station",
        "ExitID": "A1-E7",
        "ExitName_zh": "出口7",
        "ExitName_en": "Exit7",
        "LocationDescription": "延平北路近市民大道交叉東南面",
        "Stair": true,
        "Escalator": 1,
        "Elevator": true,
        "SrcUpdateTime": "2018-12-04T14:03:25+08:00",
        "UpdateTime": "2018-12-04T16:43:42+08:00",
        "VersionID": "1",
        "source": "Taoyuan Metro Open Data",
        "data_status": [
          "ok"
        ]
      }
    },
    {
      "type": "Feature",
      "geometry": {
        "type": "Point",
        "coordinates": [
          121.482,
          25.054
        ]
      },
      "properties": {
        "StationID": "A2",
        "StationName_zh": "三重站",
        "StationName_en": "Sanchong Station",
        "ExitID": "A2-E1",
        "ExitName_zh": "出口1",
        "ExitName_en": "Exit1",
        "LocationDescription": "捷運路36號",
        "Stair": true,
        "Escalator": 1,
        "Elevator": true,
        "SrcUpdateTime": "2018-12-04T14:03:25+08:00",
        "UpdateTime": "2018-12-04T16:43:42+08:00",
        "VersionID": "1",
        "source": "Taoyuan Metro Open Data",
        "data_status": [
          "ok"
        ]
      }
    },
    {
      "type": "Feature",
      "geometry": {
        "type": "Point",
        "coordinates": [
          121.482,
          25.055
        ]
      },
      "properties": {
        "StationID": "A2",
        "StationName_zh": "三重站",
        "StationName_en": "Sanchong Station",
        "ExitID": "A2-E1A",
        "ExitName_zh": "出口1A",
        "ExitName_en": "Exit1A",
        "LocationDescription": "大台北都會公園近站體旁跨堤路橋中端",
        "Stair": true,
        "Escalator": 0,
        "Elevator": false,
        "SrcUpdateTime": "2018-12-04T14:03:25+08:00",
        "UpdateTime": "2018-12-04T16:43:42+08:00",
        "VersionID": "1",
        "source": "Taoyuan Metro Open Data",
        "data_status": [
          "ok"
        ]
      }
    },
    {
      "type": "Feature",
      "geometry": {
        "type": "Point",
        "coordinates": [
          121.459,
          25.062
        ]
      },
      "properties": {
        "StationID": "A3",
        "StationName_zh": "新北產業園區站",
        "StationName_en": "New Taipei Industrial Park Station",
        "ExitID": "A3-E1",
        "ExitName_zh": "出口1",
        "ExitName_en": "Exit1",
        "LocationDescription": "五工路37號",
        "Stair": false,
        "Escalator": 0,
        "Elevator": false,
        "SrcUpdateTime": "2018-12-04T14:03:25+08:00",
        "UpdateTime": "2018-12-04T16:43:42+08:00",
        "VersionID": "1",
        "source": "Taoyuan Metro Open Data",
        "data_status": [
          "ok"
        ]
      }
    },
    {
      "type": "Feature",
      "geometry": {
        "type": "Point",
        "coordinates": [
          121.459,
          25.062
        ]
      },
      "properties": {
        "StationID": "A3",
        "StationName_zh": "新北產業園區站",
        "StationName_en": "New Taipei Industrial Park Station",
        "ExitID": "A3-E2",
        "ExitName_zh": "出口2",
        "ExitName_en": "Exit2",
        "LocationDescription": "3F連通層東南角(往捷運環狀線)",
        "Stair": true,
        "Escalator": 1,
        "Elevator": true,
        "SrcUpdateTime": "2018-12-04T14:03:25+08:00",
        "UpdateTime": "2018-12-04T16:43:42+08:00",
        "VersionID": "1",
        "source": "Taoyuan Metro Open Data",
        "data_status": [
          "ok"
        ]
      }
    },
    {
      "type": "Feature",
      "geometry": {
        "type": "Point",
        "coordinates": [
          121.445,
          25.059
        ]
      },
      "properties": {
        "StationID": "A4",
        "StationName_zh": "新莊副都心站",
        "StationName_en": "Xinzhuang Fuduxin Station",
        "ExitID": "A4-E1",
        "ExitName_zh": "出口1",
        "ExitName_en": "Exit1",
        "LocationDescription": "新北大道四段188號",
        "Stair": true,
        "Escalator": 1,
        "Elevator": true,
        "SrcUpdateTime": "2018-12-04T14:03:25+08:00",
        "UpdateTime": "2018-12-04T16:43:42+08:00",
        "VersionID": "1",
        "source": "Taoyuan Metro Open Data",
        "data_status": [
          "ok"
        ]
      }
    },
    {
      "type": "Feature",
      "geometry": {
        "type": "Point",
        "coordinates": [
          121.446,
          25.059
        ]
      },
      "properties": {
        "StationID": "A4",
        "StationName_zh": "新莊副都心站",
        "StationName_en": "Xinzhuang Fuduxin Station",
        "ExitID": "A4-E2",
        "ExitName_zh": "出口2",
        "ExitName_en": "Exit2",
        "LocationDescription": "新北大道四段近中信街交叉口西南面",
        "Stair": true,
        "Escalator": 1,
        "Elevator": true,
        "SrcUpdateTime": "2018-12-04T14:03:25+08:00",
        "UpdateTime": "2018-12-04T16:43:42+08:00",
        "VersionID": "1",
        "source": "Taoyuan Metro Open Data",
        "data_status": [
          "ok"
        ]
      }
    },
    {
      "type": "Feature",
      "geometry": {
        "type": "Point",
        "coordinates": [
          121.439,
          25.052
        ]
      },
      "properties": {
        "StationID": "A5",
        "StationName_zh": "泰山站",
        "StationName_en": "Taishan Station",
        "ExitID": "A5-E1",
        "ExitName_zh": "1號出口",
        "ExitName_en": "Exit1",
        "LocationDescription": "新北大道四段431號",
        "Stair": true,
        "Escalator": 1,
        "Elevator": true,
        "SrcUpdateTime": "2018-12-04T14:03:25+08:00",
        "UpdateTime": "2018-12-04T16:43:42+08:00",
        "VersionID": "1",
        "source": "Taoyuan Metro Open Data",
        "data_status": [
          "ok"
        ]
      }
    },
    {
      "type": "Feature",
      "geometry": {
        "type": "Point",
        "coordinates": [
          121.439,
          25.052
        ]
      },
      "properties": {
        "StationID": "A5",
        "StationName_zh": "泰山站",
        "StationName_en": "Taishan Station",
        "ExitID": "A5-E2",
        "ExitName_zh": "2號出口",
        "ExitName_en": "Exit2",
        "LocationDescription": "新北大道四段431號",
        "Stair": true,
        "Escalator": 1,
        "Elevator": true,
        "SrcUpdateTime": "2018-12-04T14:03:25+08:00",
        "UpdateTime": "2018-12-04T16:43:42+08:00",
        "VersionID": "1",
        "source": "Taoyuan Metro Open Data",
        "data_status": [
          "ok"
        ]
      }
    },
    {
      "type": "Feature",
      "geometry": {
        "type": "Point",
        "coordinates": [
          121.439,
          25.052
        ]
      },
      "properties": {
        "StationID": "A5",
        "StationName_zh": "泰山站",
        "StationName_en": "Taishan Station",
        "ExitID": "A5-E3",
        "ExitName_zh": "3號出口",
        "ExitName_en": "Exit3",
        "LocationDescription": "新北大道四段431號",
        "Stair": true,
        "Escalator": 1,
        "Elevator": true,
        "SrcUpdateTime": "2018-12-04T14:03:25+08:00",
        "UpdateTime": "2018-12-04T16:43:42+08:00",
        "VersionID": "1",
        "source": "Taoyuan Metro Open Data",
        "data_status": [
          "ok"
        ]
      }
    },
    {
      "type": "Feature",
      "geometry": {
        "type": "Point",
        "coordinates": [
          121.422,
          25.033
        ]
      },
      "properties": {
        "StationID": "A6",
        "StationName_zh": "泰山貴和站",
        "StationName_en": "Taishan Guihe Station",
        "ExitID": "A6-E1",
        "ExitName_zh": "出口1",
        "ExitName_en": "Exit1",
        "LocationDescription": "新北大道六段460號",
        "Stair": true,
        "Escalator": 1,
        "Elevator": true,
        "SrcUpdateTime": "2018-12-04T14:03:25+08:00",
        "UpdateTime": "2018-12-04T16:43:42+08:00",
        "VersionID": "1",
        "source": "Taoyuan Metro Open Data",
        "data_status": [
          "ok"
        ]
      }
    },
    {
      "type": "Feature",
      "geometry": {
        "type": "Point",
        "coordinates": [
          121.385,
          25.041
        ]
      },
      "properties": {
        "StationID": "A7",
        "StationName_zh": "體育大學站",
        "StationName_en": "National Taiwan Sport University Station",
        "ExitID": "A7-E1",
        "ExitName_zh": "出口1",
        "ExitName_en": "Exit1",
        "LocationDescription": "文化一路與青山路交叉口南面",
        "Stair": true,
        "Escalator": 1,
        "Elevator": true,
        "SrcUpdateTime": "2018-12-04T14:03:25+08:00",
        "UpdateTime": "2018-12-04T16:43:42+08:00",
        "VersionID": "1",
        "source": "Taoyuan Metro Open Data",
        "data_status": [
          "ok"
        ]
      }
    },
    {
      "type": "Feature",
      "geometry": {
        "type": "Point",
        "coordinates": [
          121.385,
          25.041
        ]
      },
      "properties": {
        "StationID": "A7",
        "StationName_zh": "體育大學站",
        "StationName_en": "National Taiwan Sport University Station",
        "ExitID": "A7-E2",
        "ExitName_zh": "出口2",
        "ExitName_en": "Exit2",
        "LocationDescription": "文化二路與青山路交叉口北面",
        "Stair": true,
        "Escalator": 1,
        "Elevator": true,
        "SrcUpdateTime": "2018-12-04T14:03:25+08:00",
        "UpdateTime": "2018-12-04T16:43:42+08:00",
        "VersionID": "1",
        "source": "Taoyuan Metro Open Data",
        "data_status": [
          "ok"
        ]
      }
    },
    {
      "type": "Feature",
      "geometry": {
        "type": "Point",
        "coordinates": [
          121.37,
          25.061
        ]
      },
      "properties": {
        "StationID": "A8",
        "StationName_zh": "長庚醫院站",
        "StationName_en": "Chang Gung Memorial Hospital Station",
        "ExitID": "A8-E1",
        "ExitName_zh": "出口1",
        "ExitName_en": "Exit1",
        "LocationDescription": "文化一路與復興一路交叉口東南面",
        "Stair": true,
        "Escalator": 1,
        "Elevator": true,
        "SrcUpdateTime": "2018-12-04T14:03:25+08:00",
        "UpdateTime": "2018-12-04T16:43:42+08:00",
        "VersionID": "1",
        "source": "Taoyuan Metro Open Data",
        "data_status": [
          "ok"
        ]
      }
    },
    {
      "type": "Feature",
      "geometry": {
        "type": "Point",
        "coordinates": [
          121.361,
          25.066
        ]
      },
      "properties": {
        "StationID": "A9",
        "StationName_zh": "林口站",
        "StationName_en": "Linkou Station",
        "ExitID": "A9-E1",
        "ExitName_zh": "1號出口",
        "ExitName_en": "Exit1",
        "LocationDescription": "文化三路與八德路交叉口西北面",
        "Stair": true,
        "Escalator": 1,
        "Elevator": true,
        "SrcUpdateTime": "2018-12-04T14:03:25+08:00",
        "UpdateTime": "2018-12-04T16:43:42+08:00",
        "VersionID": "1",
        "source": "Taoyuan Metro Open Data",
        "data_status": [
          "ok"
        ]
      }
    },
    {
      "type": "Feature",
      "geometry": {
        "type": "Point",
        "coordinates": [
          121.361,
          25.066
        ]
      },
      "properties": {
        "StationID": "A9",
        "StationName_zh": "林口站",
        "StationName_en": "Linkou Station",
        "ExitID": "A9-E2",
        "ExitName_zh": "2號出口",
        "ExitName_en": "Exit2",
        "LocationDescription": "文化三路與八德路交叉口東北面",
        "Stair": true,
        "Escalator": 1,
        "Elevator": true,
        "SrcUpdateTime": "2018-12-04T14:03:25+08:00",
        "UpdateTime": "2018-12-04T16:43:42+08:00",
        "VersionID": "1",
        "source": "Taoyuan Metro Open Data",
        "data_status": [
          "ok"
        ]
      }
    },
    {
      "type": "Feature",
      "geometry": {
        "type": "Point",
        "coordinates": [
          121.286,
          25.081
        ]
      },
      "properties": {
        "StationID": "A10",
        "StationName_zh": "山鼻站",
        "StationName_en": "Shanbi Station",
        "ExitID": "A10-E1",
        "ExitName_zh": "出口1",
        "ExitName_en": "Exit1",
        "LocationDescription": "南山路山鼻橋南面",
        "Stair": false,
        "Escalator": 0,
        "Elevator": false,
        "SrcUpdateTime": "2018-12-04T14:03:25+08:00",
        "UpdateTime": "2018-12-04T16:43:42+08:00",
        "VersionID": "1",
        "source": "Taoyuan Metro Open Data",
        "data_status": [
          "ok"
        ]
      }
    },
    {
      "type": "Feature",
      "geometry": {
        "type": "Point",
        "coordinates": [
          121.266,
          25.086
        ]
      },
      "properties": {
        "StationID": "A11",
        "StationName_zh": "坑口站",
        "StationName_en": "Kengkou Station",
        "ExitID": "A11-E1",
        "ExitName_zh": "出口1",
        "ExitName_en": "Exit1",
        "LocationDescription": "坑菓路西南面",
        "Stair": true,
        "Escalator": 1,
        "Elevator": true,
        "SrcUpdateTime": "2018-12-04T14:03:25+08:00",
        "UpdateTime": "2018-12-04T16:43:42+08:00",
        "VersionID": "1",
        "source": "Taoyuan Metro Open Data",
        "data_status": [
          "ok"
        ]
      }
    },
    {
      "type": "Feature",
      "geometry": {
        "type": "Point",
        "coordinates": [
          121.239,
          25.082
        ]
      },
      "properties": {
        "StationID": "A12",
        "StationName_zh": "機場第一航廈站",
        "StationName_en": "Airport Terminal 1 Station",
        "ExitID": "A12-E1",
        "ExitName_zh": "出口1",
        "ExitName_en": "Exit1",
        "LocationDescription": "機場第一航廈1號停車場",
        "Stair": true,
        "Escalator": 1,
        "Elevator": true,
        "SrcUpdateTime": "2018-12-04T14:03:25+08:00",
        "UpdateTime": "2018-12-04T16:43:42+08:00",
        "VersionID": "1",
        "source": "Taoyuan Metro Open Data",
        "data_status": [
          "ok"
        ]
      }
    },
    {
      "type": "Feature",
      "geometry": {
        "type": "Point",
        "coordinates": [
          121.239,
          25.082
        ]
      },
      "properties": {
        "StationID": "A12",
        "StationName_zh": "機場第一航廈站",
        "StationName_en": "Airport Terminal 1 Station",
        "ExitID": "A12-E2",
        "ExitName_zh": "機場連通道出口",
        "ExitName_en": "To Taoyuan Airport Terminal 1",
        "LocationDescription": "機場第一航廈B1美食街",
        "Stair": true,
        "Escalator": 1,
        "Elevator": true,
        "SrcUpdateTime": "2018-12-04T14:03:25+08:00",
        "UpdateTime": "2018-12-04T16:43:42+08:00",
        "VersionID": "1",
        "source": "Taoyuan Metro Open Data",
        "data_status": [
          "ok"
        ]
      }
    },
    {
      "type": "Feature",
      "geometry": {
        "type": "Point",
        "coordinates": [
          121.232,
          25.077
        ]
      },
      "properties": {
        "StationID": "A13",
        "StationName_zh": "機場第二航廈站",
        "StationName_en": "Airport Terminal 2 Station",
        "ExitID": "A13-E1",
        "ExitName_zh": "出口1",
        "ExitName_en": "Exit1",
        "LocationDescription": "機場第二航廈B1美食街東南面",
        "Stair": false,
        "Escalator": 0,
        "Elevator": false,
        "SrcUpdateTime": "2018-12-04T14:03:25+08:00",
        "UpdateTime": "2018-12-04T16:43:42+08:00",
        "VersionID": "1",
        "source": "Taoyuan Metro Open Data",
        "data_status": [
          "ok"
        ]
      }
    },
    {
      "type": "Feature",
      "geometry": {
        "type": "Point",
        "coordinates": [
          121.221,
          25.069
        ]
      },
      "properties": {
        "StationID": "A14a",
        "StationName_zh": "機場旅館站",
        "StationName_en": "Airport Hotel Station",
        "ExitID": "A14a-E1",
        "ExitName_zh": "出口1",
        "ExitName_en": "Exit1",
        "LocationDescription": "諾富特飯店西面",
        "Stair": true,
        "Escalator": 1,
        "Elevator": true,
        "SrcUpdateTime": "2018-12-04T14:03:25+08:00",
        "UpdateTime": "2018-12-04T16:43:42+08:00",
        "VersionID": "1",
        "source": "Taoyuan Metro Open Data",
        "data_status": [
          "ok"
        ]
      }
    },
    {
      "type": "Feature",
      "geometry": {
        "type": "Point",
        "coordinates": [
          121.211,
          25.056
        ]
      },
      "properties": {
        "StationID": "A15",
        "StationName_zh": "大園站",
        "StationName_en": "Dayuan Station",
        "ExitID": "A15-E1",
        "ExitName_zh": "出口1",
        "ExitName_en": "Exit1",
        "LocationDescription": "橫湳一路東面",
        "Stair": false,
        "Escalator": 0,
        "Elevator": false,
        "SrcUpdateTime": "2018-12-04T14:03:25+08:00",
        "UpdateTime": "2018-12-04T16:43:42+08:00",
        "VersionID": "1",
        "source": "Taoyuan Metro Open Data",
        "data_status": [
          "ok"
        ]
      }
    },
    {
      "type": "Feature",
      "geometry": {
        "type": "Point",
        "coordinates": [
          121.216,
          25.037
        ]
      },
      "properties": {
        "StationID": "A16",
        "StationName_zh": "橫山站",
        "StationName_en": "Hengshan Station",
        "ExitID": "A16-E1",
        "ExitName_zh": "出口1",
        "ExitName_en": "Exit1",
        "LocationDescription": "大竹南路北面",
        "Stair": false,
        "Escalator": 0,
        "Elevator": false,
        "SrcUpdateTime": "2018-12-04T14:03:25+08:00",
        "UpdateTime": "2018-12-04T16:43:42+08:00",
        "VersionID": "1",
        "source": "Taoyuan Metro Open Data",
        "data_status": [
          "ok"
        ]
      }
    },
    {
      "type": "Feature",
      "geometry": {
        "type": "Point",
        "coordinates": [
          121.221,
          25.024
        ]
      },
      "properties": {
        "StationID": "A17",
        "StationName_zh": "領航站",
        "StationName_en": "Linghang Station",
        "ExitID": "A17-E1",
        "ExitName_zh": "出口1",
        "ExitName_en": "Exit1",
        "LocationDescription": "領航北路四段北面",
        "Stair": false,
        "Escalator": 0,
        "Elevator": false,
        "SrcUpdateTime": "2018-12-04T14:03:25+08:00",
        "UpdateTime": "2018-12-04T16:43:42+08:00",
        "VersionID": "1",
        "source": "Taoyuan Metro Open Data",
        "data_status": [
          "ok"
        ]
      }
    },
    {
      "type": "Feature",
      "geometry": {
        "type": "Point",
        "coordinates": [
          121.214,
          25.014
        ]
      },
      "properties": {
        "StationID": "A18",
        "StationName_zh": "高鐵桃園站",
        "StationName_en": "Taoyuan HSR Station",
        "ExitID": "A18-E1",
        "ExitName_zh": "出口1",
        "ExitName_en": "Exit1",
        "LocationDescription": "高鐵北路一段東面(高鐵桃園站)",
        "Stair": true,
        "Escalator": 1,
        "Elevator": true,
        "SrcUpdateTime": "2018-12-04T14:03:25+08:00",
        "UpdateTime": "2018-12-04T16:43:42+08:00",
        "VersionID": "1",
        "source": "Taoyuan Metro Open Data",
        "data_status": [
          "ok"
        ]
      }
    },
    {
      "type": "Feature",
      "geometry": {
        "type": "Point",
        "coordinates": [
          121.214,
          25.014
        ]
      },
      "properties": {
        "StationID": "A18",
        "StationName_zh": "高鐵桃園站",
        "StationName_en": "Taoyuan HSR Station",
        "ExitID": "A18-E2",
        "ExitName_zh": "出口2",
        "ExitName_en": "Exit2",
        "LocationDescription": "高鐵北路一段西面(華泰名品城)",
        "Stair": true,
        "Escalator": 1,
        "Elevator": true,
        "SrcUpdateTime": "2018-12-04T14:03:25+08:00",
        "UpdateTime": "2018-12-04T16:43:42+08:00",
        "VersionID": "1",
        "source": "Taoyuan Metro Open Data",
        "data_status": [
          "ok"
        ]
      }
    },
    {
      "type": "Feature",
      "geometry": {
        "type": "Point",
        "coordinates": [
          121.203,
          25.002
        ]
      },
      "properties": {
        "StationID": "A19",
        "StationName_zh": "桃園體育園區站",
        "StationName_en": "Taoyuan Sports Park Station",
        "ExitID": "A19-E1",
        "ExitName_zh": "出口1",
        "ExitName_en": "Exit1",
        "LocationDescription": "高鐵南路二段西面",
        "Stair": true,
        "Escalator": 1,
        "Elevator": true,
        "SrcUpdateTime": "2018-12-04T14:03:25+08:00",
        "UpdateTime": "2018-12-04T16:43:42+08:00",
        "VersionID": "1",
        "source": "Taoyuan Metro Open Data",
        "data_status": [
          "ok"
        ]
      }
    },
    {
      "type": "Feature",
      "geometry": {
        "type": "Point",
        "coordinates": [
          121.216,
          24.98
        ]
      },
      "properties": {
        "StationID": "A20",
        "StationName_zh": "興南站",
        "StationName_en": "Xingnan Station",
        "ExitID": "A20-E1",
        "ExitName_zh": "出口1",
        "ExitName_en": "Exit1",
        "LocationDescription": "中豐北路一段南面",
        "Stair": true,
        "Escalator": 1,
        "Elevator": true,
        "SrcUpdateTime": "2018-12-04T14:03:25+08:00",
        "UpdateTime": "2018-12-04T16:43:42+08:00",
        "VersionID": "1",
        "source": "Taoyuan Metro Open Data",
        "data_status": [
          "ok"
        ]
      }
    },
    {
      "type": "Feature",
      "geometry": {
        "type": "Point",
        "coordinates": [
          121.221,
          24.967
        ]
      },
      "properties": {
        "StationID": "A21",
        "StationName_zh": "環北站",
        "StationName_en": "Huanbei Station",
        "ExitID": "A21-E1",
        "ExitName_zh": "出口1",
        "ExitName_en": "Exit1",
        "LocationDescription": "中豐北路一段與環北路交叉口之西北面",
        "Stair": true,
        "Escalator": 1,
        "Elevator": true,
        "SrcUpdateTime": "2018-12-04T14:03:25+08:00",
        "UpdateTime": "2018-12-04T16:43:42+08:00",
        "VersionID": "1",
        "source": "Taoyuan Metro Open Data",
        "data_status": [
          "ok"
        ]
      }
    }
  ]
}
